[{"OBJECT_NAME":"CHINASAT 9B","OBJECT_ID":"2021-080A","EPOCH":"2026-03-23T19:28:32.771424","MEAN_MOTION":1.0027064,"ECCENTRICITY":0.00023339,"INCLINATION":0.0346,"RA_OF_ASC_NODE":93.1793,"ARG_OF_PERICENTER":234.7762,"MEAN_ANOMALY":246.8822,"EPHEMERIS_TYPE":0,"CLASSIFICATION_TYPE":"U","NORAD_CAT_ID":49125,"ELEMENT_SET_NO":999,"REV_AT_EPOCH":1679,"BSTAR":0,"MEAN_MOTION_DOT":-3.17e-6,"MEAN_MOTION_DDOT":0},{"OBJECT_NAME":"SES-17","OBJECT_ID":"2021-095A","EPOCH":"2026-03-29T00:44:00.778848","MEAN_MOTION":1.00269272,"ECCENTRICITY":0.0001031,"INCLINATION":0.0448,"RA_OF_ASC_NODE":24.8284,"ARG_OF_PERICENTER":333.1809,"MEAN_ANOMALY":132.3139,"EPHEMERIS_TYPE":0,"CLASSIFICATION_TYPE":"U","NORAD_CAT_ID":49332,"ELEMENT_SET_NO":999,"REV_AT_EPOCH":1705,"BSTAR":0,"MEAN_MOTION_DOT":-2.92e-6,"MEAN_MOTION_DDOT":0},{"OBJECT_NAME":"SYRACUSE 4A","OBJECT_ID":"2021-095B","EPOCH":"2026-03-29T02:58:52.620096","MEAN_MOTION":1.0026994,"ECCENTRICITY":0.0001596,"INCLINATION":0.0224,"RA_OF_ASC_NODE":189.2588,"ARG_OF_PERICENTER":181.5265,"MEAN_ANOMALY":265.9692,"EPHEMERIS_TYPE":0,"CLASSIFICATION_TYPE":"U","NORAD_CAT_ID":49333,"ELEMENT_SET_NO":999,"REV_AT_EPOCH":1714,"BSTAR":0,"MEAN_MOTION_DOT":0,"MEAN_MOTION_DDOT":0},{"OBJECT_NAME":"ZHONGXING-1D","OBJECT_ID":"2021-114A","EPOCH":"2026-03-29T05:05:32.972352","MEAN_MOTION":1.00273307,"ECCENTRICITY":0.0002229,"INCLINATION":0.0497,"RA_OF_ASC_NODE":296.9336,"ARG_OF_PERICENTER":296.9287,"MEAN_ANOMALY":159.2832,"EPHEMERIS_TYPE":0,"CLASSIFICATION_TYPE":"U","NORAD_CAT_ID":49505,"ELEMENT_SET_NO":999,"REV_AT_EPOCH":1601,"BSTAR":0,"MEAN_MOTION_DOT":-3.56e-6,"MEAN_MOTION_DDOT":0},{"OBJECT_NAME":"STPSAT-6","OBJECT_ID":"2021-118A","EPOCH":"2026-03-29T03:18:38.644992","MEAN_MOTION":1.00272013,"ECCENTRICITY":0.0002392,"INCLINATION":0.1163,"RA_OF_ASC_NODE":84.5907,"ARG_OF_PERICENTER":243.448,"MEAN_ANOMALY":156.2832,"EPHEMERIS_TYPE":0,"CLASSIFICATION_TYPE":"U","NORAD_CAT_ID":49817,"ELEMENT_SET_NO":999,"REV_AT_EPOCH":1577,"BSTAR":0,"MEAN_MOTION_DOT":-6.4e-7,"MEAN_MOTION_DDOT":0},{"OBJECT_NAME":"EXPRESS AMU-7","OBJECT_ID":"2021-123A","EPOCH":"2026-03-29T05:09:55.052928","MEAN_MOTION":1.00269056,"ECCENTRICITY":2.48e-5,"INCLINATION":0.0245,"RA_OF_ASC_NODE":197.4933,"ARG_OF_PERICENTER":208.9733,"MEAN_ANOMALY":2.6442,"EPHEMERIS_TYPE":0,"CLASSIFICATION_TYPE":"U","NORAD_CAT_ID":50001,"ELEMENT_SET_NO":999,"REV_AT_EPOCH":1573,"BSTAR":0,"MEAN_MOTION_DOT":0,"MEAN_MOTION_DDOT":0},{"OBJECT_NAME":"EXPRESS AMU-3","OBJECT_ID":"2021-123B","EPOCH":"2026-03-28T04:45:26.034336","MEAN_MOTION":1.00272369,"ECCENTRICITY":1.96e-5,"INCLINATION":0.0171,"RA_OF_ASC_NODE":229.8195,"ARG_OF_PERICENTER":48.5209,"MEAN_ANOMALY":81.634,"EPHEMERIS_TYPE":0,"CLASSIFICATION_TYPE":"U","NORAD_CAT_ID":50002,"ELEMENT_SET_NO":999,"REV_AT_EPOCH":622,"BSTAR":0,"MEAN_MOTION_DOT":-3.41e-6,"MEAN_MOTION_DDOT":0},{"OBJECT_NAME":"TIANLIAN 2-02","OBJECT_ID":"2021-124A","EPOCH":"2026-03-29T03:34:41.686176","MEAN_MOTION":1.00271495,"ECCENTRICITY":0.0004068,"INCLINATION":0.5946,"RA_OF_ASC_NODE":87.4496,"ARG_OF_PERICENTER":214.2438,"MEAN_ANOMALY":109.4727,"EPHEMERIS_TYPE":0,"CLASSIFICATION_TYPE":"U","NORAD_CAT_ID":50005,"ELEMENT_SET_NO":999,"REV_AT_EPOCH":1581,"BSTAR":0,"MEAN_MOTION_DOT":-3.3e-7,"MEAN_MOTION_DDOT":0},{"OBJECT_NAME":"TURKSAT 5B","OBJECT_ID":"2021-126A","EPOCH":"2026-03-28T20:40:38.555040","MEAN_MOTION":1.00271509,"ECCENTRICITY":0.0005281,"INCLINATION":0.0787,"RA_OF_ASC_NODE":333.9601,"ARG_OF_PERICENTER":2.2442,"MEAN_ANOMALY":202.2097,"EPHEMERIS_TYPE":0,"CLASSIFICATION_TYPE":"U","NORAD_CAT_ID":50212,"ELEMENT_SET_NO":999,"REV_AT_EPOCH":1549,"BSTAR":0,"MEAN_MOTION_DOT":1.26e-6,"MEAN_MOTION_DDOT":0},{"OBJECT_NAME":"INMARSAT 6-F1","OBJECT_ID":"2021-128A","EPOCH":"2026-03-29T01:27:04.150080","MEAN_MOTION":1.00270812,"ECCENTRICITY":1.94e-5,"INCLINATION":0.0031,"RA_OF_ASC_NODE":180.5481,"ARG_OF_PERICENTER":349.1329,"MEAN_ANOMALY":122.2872,"EPHEMERIS_TYPE":0,"CLASSIFICATION_TYPE":"U","NORAD_CAT_ID":50319,"ELEMENT_SET_NO":999,"REV_AT_EPOCH":1545,"BSTAR":0,"MEAN_MOTION_DOT":-1.91e-6,"MEAN_MOTION_DDOT":0},{"OBJECT_NAME":"SHIYAN-12 01 (SY-12 01)","OBJECT_ID":"2021-129A","EPOCH":"2026-03-28T16:58:51.722112","MEAN_MOTION":1.00083498,"ECCENTRICITY":0.0003546,"INCLINATION":3.4676,"RA_OF_ASC_NODE":80.9876,"ARG_OF_PERICENTER":255.754,"MEAN_ANOMALY":226.8742,"EPHEMERIS_TYPE":0,"CLASSIFICATION_TYPE":"U","NORAD_CAT_ID":50321,"ELEMENT_SET_NO":999,"REV_AT_EPOCH":1569,"BSTAR":0,"MEAN_MOTION_DOT":-3.76e-6,"MEAN_MOTION_DDOT":0},{"OBJECT_NAME":"SHIYAN-12 02 (SY-12 02)","OBJECT_ID":"2021-129B","EPOCH":"2026-03-28T16:38:02.170752","MEAN_MOTION":1.00458419,"ECCENTRICITY":4.9e-6,"INCLINATION":3.4677,"RA_OF_ASC_NODE":81.0026,"ARG_OF_PERICENTER":129.573,"MEAN_ANOMALY":253.9232,"EPHEMERIS_TYPE":0,"CLASSIFICATION_TYPE":"U","NORAD_CAT_ID":50322,"ELEMENT_SET_NO":999,"REV_AT_EPOCH":1569,"BSTAR":0,"MEAN_MOTION_DOT":1.38e-6,"MEAN_MOTION_DDOT":0},{"OBJECT_NAME":"TJS-9","OBJECT_ID":"2021-135A","EPOCH":"2026-03-29T05:07:40.268064","MEAN_MOTION":1.00274789,"ECCENTRICITY":0.0003159,"INCLINATION":0.0837,"RA_OF_ASC_NODE":278.6175,"ARG_OF_PERICENTER":142.9568,"MEAN_ANOMALY":339.1384,"EPHEMERIS_TYPE":0,"CLASSIFICATION_TYPE":"U","NORAD_CAT_ID":50574,"ELEMENT_SET_NO":999,"REV_AT_EPOCH":1562,"BSTAR":0,"MEAN_MOTION_DOT":-3.18e-6,"MEAN_MOTION_DDOT":0},{"OBJECT_NAME":"GOES 18","OBJECT_ID":"2022-021A","EPOCH":"2026-03-29T00:04:38.606304","MEAN_MOTION":1.00272466,"ECCENTRICITY":4.56e-5,"INCLINATION":0.0499,"RA_OF_ASC_NODE":29.1378,"ARG_OF_PERICENTER":26.3797,"MEAN_ANOMALY":355.0404,"EPHEMERIS_TYPE":0,"CLASSIFICATION_TYPE":"U","NORAD_CAT_ID":51850,"ELEMENT_SET_NO":999,"REV_AT_EPOCH":578,"BSTAR":0,"MEAN_MOTION_DOT":7.7e-7,"MEAN_MOTION_DDOT":0},{"OBJECT_NAME":"ZHONGXING-6D","OBJECT_ID":"2022-038A","EPOCH":"2026-03-28T03:17:21.156288","MEAN_MOTION":1.00271198,"ECCENTRICITY":0.0002071,"INCLINATION":0.052,"RA_OF_ASC_NODE":254.5065,"ARG_OF_PERICENTER":74.3406,"MEAN_ANOMALY":31.1173,"EPHEMERIS_TYPE":0,"CLASSIFICATION_TYPE":"U","NORAD_CAT_ID":52255,"ELEMENT_SET_NO":999,"REV_AT_EPOCH":1461,"BSTAR":0,"MEAN_MOTION_DOT":-3.73e-6,"MEAN_MOTION_DDOT":0},{"OBJECT_NAME":"NILESAT 301","OBJECT_ID":"2022-061A","EPOCH":"2026-03-29T04:26:36.705120","MEAN_MOTION":1.00270646,"ECCENTRICITY":0.0005774,"INCLINATION":0.0251,"RA_OF_ASC_NODE":33.3587,"ARG_OF_PERICENTER":332.232,"MEAN_ANOMALY":240.6692,"EPHEMERIS_TYPE":0,"CLASSIFICATION_TYPE":"U","NORAD_CAT_ID":52817,"ELEMENT_SET_NO":999,"REV_AT_EPOCH":1393,"BSTAR":0,"MEAN_MOTION_DOT":0,"MEAN_MOTION_DDOT":0},{"OBJECT_NAME":"CMS-02 (GSAT 24)","OBJECT_ID":"2022-067A","EPOCH":"2026-03-29T01:26:56.660928","MEAN_MOTION":1.00271626,"ECCENTRICITY":0.0002213,"INCLINATION":0.0278,"RA_OF_ASC_NODE":117.1798,"ARG_OF_PERICENTER":197.825,"MEAN_ANOMALY":336.1809,"EPHEMERIS_TYPE":0,"CLASSIFICATION_TYPE":"U","NORAD_CAT_ID":52903,"ELEMENT_SET_NO":999,"REV_AT_EPOCH":1380,"BSTAR":0,"MEAN_MOTION_DOT":-1.84e-6,"MEAN_MOTION_DDOT":0}]
