CHINASAT 9B             
1 49125U 21080A   26082.81149041 -.00000317  00000+0  00000+0 0  9998
2 49125   0.0346  93.1793 0002333 234.7762 246.8822  1.00270640 16795
SES-17                  
1 49332U 21095A   26088.03056457 -.00000292  00000+0  00000+0 0  9994
2 49332   0.0448  24.8284 0001031 333.1809 132.3139  1.00269272 17053
SYRACUSE 4A             
1 49333U 21095B   26088.12422014  .00000000  00000+0  00000+0 0  9997
2 49333   0.0224 189.2588 0001596 181.5265 265.9692  1.00269940 17145
ZHONGXING-1D            
1 49505U 21114A   26088.21218718 -.00000356  00000+0  00000+0 0  9999
2 49505   0.0497 296.9336 0002229 296.9287 159.2832  1.00273307 16012
STPSAT-6                
1 49817U 21118A   26088.13794728 -.00000064  00000+0  00000+0 0  9996
2 49817   0.1163  84.5907 0002392 243.4480 156.2832  1.00272013 15779
EXPRESS AMU-7           
1 50001U 21123A   26088.21522052  .00000000  00000+0  00000+0 0  9996
2 50001   0.0245 197.4933 0000248 208.9733   2.6442  1.00269056 15734
EXPRESS AMU-3           
1 50002U 21123B   26087.19821799 -.00000341  00000+0  00000+0 0  9992
2 50002   0.0171 229.8195 0000196  48.5209  81.6340  1.00272369  6220
TIANLIAN 2-02           
1 50005U 21124A   26088.14909359 -.00000033  00000+0  00000+0 0  9999
2 50005   0.5946  87.4496 0004068 214.2438 109.4727  1.00271495 15810
TURKSAT 5B              
1 50212U 21126A   26087.86155735  .00000126  00000+0  00000+0 0  9992
2 50212   0.0787 333.9601 0005281   2.2442 202.2097  1.00271509 15495
INMARSAT 6-F1           
1 50319U 21128A   26088.06046470 -.00000191  00000+0  00000+0 0  9993
2 50319   0.0031 180.5481 0000194 349.1329 122.2872  1.00270812 15456
SHIYAN-12 01 (SY-12 01) 
1 50321U 21129A   26087.70754308 -.00000376  00000+0  00000+0 0  9998
2 50321   3.4676  80.9876 0003546 255.7540 226.8742  1.00083498 15698
SHIYAN-12 02 (SY-12 02) 
1 50322U 21129B   26087.69308068  .00000138  00000+0  00000+0 0  9990
2 50322   3.4677  81.0026 0000049 129.5730 253.9232  1.00458419 15697
TJS-9                   
1 50574U 21135A   26088.21366051 -.00000318  00000+0  00000+0 0  9992
2 50574   0.0837 278.6175 0003159 142.9568 339.1384  1.00274789 15623
GOES 18                 
1 51850U 22021A   26088.00322461  .00000077  00000+0  00000+0 0  9990
2 51850   0.0499  29.1378 0000456  26.3797 355.0404  1.00272466  5781
ZHONGXING-6D            
1 52255U 22038A   26087.13705042 -.00000373  00000+0  00000+0 0  9991
2 52255   0.0520 254.5065 0002071  74.3406  31.1173  1.00271198 14616
NILESAT 301             
1 52817U 22061A   26088.18514705  .00000000  00000+0  00000+0 0  9997
2 52817   0.0251  33.3587 0005774 332.2320 240.6692  1.00270646 13931
CMS-02 (GSAT 24)        
1 52903U 22067A   26088.06037802 -.00000184  00000+0  00000+0 0  9998
2 52903   0.0278 117.1798 0002213 197.8250 336.1809  1.00271626 13809
